{
    "links": {
        "self": "http://www.neowsapp.com/rest/v1/neo/3831171?api_key=iIulBulltgU6a56xZRHN4H3l9WmuAYTsLGpBGhQ2"
    },
    "id": "3831171",
    "neo_reference_id": "3831171",
    "name": "(2018 SO3)",
    "designation": "2018 SO3",
    "nasa_jpl_url": "http://ssd.jpl.nasa.gov/sbdb.cgi?sstr=3831171",
    "absolute_magnitude_h": 24.8,
    "estimated_diameter": {
        "kilometers": {
            "estimated_diameter_min": 0.0291443905,
            "estimated_diameter_max": 0.0651688382
        },
        "meters": {
            "estimated_diameter_min": 29.1443904535,
            "estimated_diameter_max": 65.1688382168
        },
        "miles": {
            "estimated_diameter_min": 0.018109479,
            "estimated_diameter_max": 0.0404940262
        },
        "feet": {
            "estimated_diameter_min": 95.6180819754,
            "estimated_diameter_max": 213.8085311752
        }
    },
    "is_potentially_hazardous_asteroid": false,
    "close_approach_data": [
        {
            "close_approach_date": "2018-09-14",
            "close_approach_date_full": "2018-Sep-14 13:29",
            "epoch_date_close_approach": 1536931740000,
            "relative_velocity": {
                "kilometers_per_second": "15.6524174341",
                "kilometers_per_hour": "56348.7027628878",
                "miles_per_hour": "35012.8925584177"
            },
            "miss_distance": {
                "astronomical": "0.0635316243",
                "lunar": "24.7138018527",
                "kilometers": "9504195.672920241",
                "miles": "5905633.3432956858"
            },
            "orbiting_body": "Earth"
        },
        {
            "close_approach_date": "2037-12-26",
            "close_approach_date_full": "2037-Dec-26 05:09",
            "epoch_date_close_approach": 2145416940000,
            "relative_velocity": {
                "kilometers_per_second": "5.8389157681",
                "kilometers_per_hour": "21020.0967652849",
                "miles_per_hour": "13061.0706817405"
            },
            "miss_distance": {
                "astronomical": "1.0806733352",
                "lunar": "420.3819273928",
                "kilometers": "161666429.111716024",
                "miles": "100454860.8962241712"
            },
            "orbiting_body": "Juptr"
        }
    ],
    "orbital_data": {
        "orbit_id": "3",
        "orbit_determination_date": "2018-10-12 06:38:27",
        "first_observation_date": "2018-09-21",
        "last_observation_date": "2018-10-11",
        "data_arc_in_days": 20,
        "observations_used": 14,
        "orbit_uncertainty": "7",
        "minimum_orbit_intersection": ".0506699",
        "jupiter_tisserand_invariant": "2.959",
        "epoch_osculation": "2459000.5",
        "eccentricity": ".695130300225047",
        "semi_major_axis": "2.687416450863169",
        "inclination": "8.169342881522486",
        "ascending_node_longitude": "194.5174193619934",
        "orbital_period": "1609.166133687427",
        "perihelion_distance": ".8193118465449242",
        "perihelion_argument": "101.7629004925947",
        "aphelion_distance": "4.555521055181413",
        "perihelion_time": "2458338.077686517716",
        "mean_anomaly": "148.196030143364",
        "mean_motion": ".2237183547823338",
        "equinox": "J2000",
        "orbit_class": {
            "orbit_class_type": "APO",
            "orbit_class_description": "Near-Earth asteroid orbits which cross the Earth’s orbit similar to that of 1862 Apollo",
            "orbit_class_range": "a (semi-major axis) > 1.0 AU; q (perihelion) < 1.017 AU"
        }
    },
    "is_sentry_object": false
}